{
  "norad_id": 48860,
  "name": "YAOGAN-30 10A",
  "history": [
    {
      "epoch": "2026-03-28T22:23:17.490912",
      "apogee_km": 561.8128047251039,
      "perigee_km": 557.7055701821319,
      "latitude_deg": 14.32076369982665,
      "longitude_deg": -124.44723231997341,
      "semi_major_axis_km": 6937.896187453617,
      "eccentricity": 0.000296,
      "inclination_deg": 34.9953,
      "raan_deg": 281.2317,
      "arg_perigee_deg": 86.6318,
      "mean_anomaly_deg": 273.4729,
      "mean_motion_rev_day": 15.02315217
    },
    {
      "epoch": "2026-03-28T23:58:59.312640",
      "apogee_km": 561.8287952709152,
      "perigee_km": 557.6854848904577,
      "latitude_deg": 34.866175803257974,
      "longitude_deg": -118.06743040005676,
      "semi_major_axis_km": 6937.894140080686,
      "eccentricity": 0.0002986,
      "inclination_deg": 34.9952,
      "raan_deg": 280.8268,
      "arg_perigee_deg": 87.3495,
      "mean_anomaly_deg": 272.7554,
      "mean_motion_rev_day": 15.02315882
    }
  ]
}